ZHUHAI-1 01 (CAS-4A)    
1 42761U 17034D   24157.47892523  .00020187  00000+0  73115-3 0  9991
2 42761  43.0225 291.0698 0012181 280.4511  79.4968 15.27961982385624
CARTOSAT-2E             
1 42767U 17036C   24157.48185943  .00008531  00000+0  40743-3 0  9991
2 42767  97.4388 217.0303 0004932  32.0573 328.0961 15.19275255385536
FORMOSAT-5              
1 42920U 17049A   24156.91871877  .00000447  00000+0  12424-3 0  9994
2 42920  98.2909 234.8194 0010129 201.2701 158.8074 14.50965828359045
SENTINEL-5P             
1 42969U 17064A   24157.13287964  .00000164  00000+0  98670-4 0  9991
2 42969  98.7213  96.5193 0001541  84.2793 275.8559 14.19578722344287
SKYSAT-C11              
1 42987U 17068A   24157.08970431  .00023035  00000+0  59330-3 0  9998
2 42987  97.3571 283.3568 0002412  10.9140 349.2158 15.39221837368788
SKYSAT-C10              
1 42988U 17068B   24156.79063390  .00016311  00000+0  54157-3 0  9994
2 42988  97.3651 282.8482 0002802 283.3585  76.7344 15.31293469368690
SKYSAT-C9               
1 42989U 17068C   24156.59511576  .00016590  00000+0  53027-3 0  9991
2 42989  97.3579 281.1254 0016472  15.3054 344.8682 15.32385196368853
SKYSAT-C8               
1 42990U 17068D   24157.34154166  .00013818  00000+0  48140-3 0  9995
2 42990  97.3683 282.9801 0005511 165.5092 194.6307 15.29759961368733
SKYSAT-C7               
1 42991U 17068E   24156.78687048  .00016439  00000+0  56973-3 0  9998
2 42991  97.3679 282.8311 0008354 112.8220 247.3903 15.29872597368672
SKYSAT-C6               
1 42992U 17068F   24156.61983507  .00016870  00000+0  56332-3 0  9998
2 42992  97.3707 283.6578 0002915 179.6325 180.4919 15.31102640368686
CARTOSAT-2F             
1 43111U 18004A   24157.44880884  .00008845  00000+0  42363-3 0  9991
2 43111  97.4322 217.1255 0000987  63.2260 296.9075 15.19171186354713
GAOFEN-1 02             
1 43259U 18031A   24157.51941781  .00001626  00000+0  24016-3 0  9991
2 43259  97.8209 225.3622 0002847 193.6819 166.4315 14.76569145333250
GAOFEN-1 03             
1 43260U 18031B   24157.49768418  .00001606  00000+0  23717-3 0  9999
2 43260  97.8203 225.2626 0003151 294.3606  65.7275 14.76573009333240
GAOFEN-1 04             
1 43262U 18031D   24157.47309078  .00001649  00000+0  24348-3 0  9990
2 43262  97.8212 225.3440 0002517 237.2060 122.8908 14.76563056333230
SENTINEL-3B             
1 43437U 18039A   24156.93490844  .00000282  00000+0  13437-3 0  9993
2 43437  98.6285 224.0213 0000784  99.3379 260.7890 14.26733406318284
GAOFEN-5 01             
1 43461U 18043A   24157.48177931  .00000868  00000+0  19451-3 0  9997
2 43461  98.3554 107.8512 0001363 171.4442 188.6780 14.59140495323462
GAOFEN-6                
1 43484U 18048A   24157.51318566  .00001471  00000+0  21822-3 0  9998
2 43484  97.8637 232.1972 0012306  55.9461 304.2915 14.76474509323945
GAOFEN-11 01            
1 43585U 18063A   24157.52318418  .00012780  00000+0  43624-3 0  9993
2 43585  97.2327 223.7158 0009383 144.0155 216.1720 15.30411553325971
ICESAT-2                
1 43613U 18070A   24157.14069688  .00005026  00000+0  18780-3 0  9993
2 43613  92.0019  91.4039 0008861 106.5670 253.6553 15.27292374319132
HYSIS                   
1 43719U 18096A   24157.48388192  .00002497  00000+0  34741-3 0  9993
2 43719  97.8664 221.6544 0001617  50.6860 309.4495 14.78692044297816
KAZSTSAT                
1 43783U 18099AB  24157.14517712  .00002293  00000+0  20701-3 0  9997
2 43783  97.5271 208.6324 0007992  33.1401 327.0320 14.96434522300181
SAUDISAT 5A             
1 43831U 18102A   24157.49458052  .00006221  00000+0  32830-3 0  9996
2 43831  97.4087 223.4079 0011704 212.6294 147.4217 15.15831584302824
SAUDISAT 5B             
1 43833U 18102C   24157.47167223  .00006845  00000+0  35432-3 0  9996
2 43833  97.4136 225.1871 0012373 217.6891 142.3476 15.16474144302907
GAOFEN-10R              
1 44622U 19066A   24157.49199995  .00002810  00000+0  34892-3 0  9993
2 44622  97.9648  99.4745 0003297 124.5161 235.6365 14.83410003252487
CARTOSAT-3              
1 44804U 19081A   24157.45235709  .00007904  00000+0  37867-3 0  9996
2 44804  97.5334 215.2575 0012385 216.3350 143.7045 15.19140654250804
GAOFEN-12 01            
1 44819U 19082A   24157.49868746  .00000920  00000+0  12523-3 0  9993
2 44819  97.8234 171.8946 0000748 137.9690 222.1581 14.81025476244347
CSG-1                   
1 44873U 19092A   24157.51569179  .00001064  00000+0  14013-3 0  9991
2 44873  97.8866 340.8335 0001369  94.7835 265.3535 14.82165992241613
NUSAT-6 (HYPATIA)       
1 46272U 20061A   24157.20598568  .00076197  00000+0  88145-3 0  9990
2 46272  97.2323 231.3190 0000300 223.6312 136.4923 15.61615390209613
NEMO-HD                 
1 46277U 20061F   24157.46089303  .00009533  00000+0  37265-3 0  9992
2 46277  97.2980 220.4394 0002440 138.6908 221.4516 15.26062713208152
SENTINEL-6              
1 46984U 20086A   24157.20794459 -.00000047  00000+0  62262-4 0  9999
2 46984  66.0410 236.1501 0007885 270.3359  89.6753 12.80928325165410
GAOFEN-12 02            
1 48079U 21026A   24157.48823519  .00000937  00000+0  12768-3 0  9993
2 48079  97.9496 149.2668 0001682  74.3746 285.7652 14.81027110172019
PLEIADES NEO 3          
1 48268U 21034A   24157.27392322  .00002285  00000+0  29679-3 0  9999
2 48268  97.8936 231.6871 0001167 125.9116 234.2206 14.81686048167795
NUSAT-19 (ROSALIND)     
1 48905U 21059AC  24157.48135242  .00056585  00000+0  92146-3 0  9994
2 48905  97.5894 309.0873 0003445  63.7532 296.4074 15.52461254164022
PLEIADES NEO 4          
1 49070U 21073E   24157.51027937  .00002357  00000+0  30596-3 0  9998
2 49070  97.8937 231.9168 0001105 120.5568 239.5753 14.81676488151542
LANDSAT 9               
1 49260U 21088A   24157.49695056  .00000777  00000+0  18234-3 0  9994
2 49260  98.1877 227.3139 0001040  93.3234 266.8084 14.57117700142980
CSG-2                   
1 51444U 22008A   24157.48192493  .00000800  00000+0  10703-3 0  9990
2 51444  97.8863 340.7962 0001413  87.9104 272.2270 14.82167641126720
INS-2TD                 
1 51658U 22013C   24157.49076537  .00054101  00000+0  11770-2 0  9991
2 51658  97.5189 180.3591 0007617 169.3540 190.7871 15.44105624128198
GAOFEN-12 03            
1 52912U 22069A   24157.53189112  .00002800  00000+0  36745-3 0  9994
2 52912  97.9130  48.7217 0004532 161.9750 198.1624 14.81076758104881
SWOT                    
1 54754U 22173A   24157.22179920  .00000053  00000+0  37909-4 0  9990
2 54754  77.6099 316.8831 0000516 353.9979   6.1166 14.00168084 75310
GAOFEN-12 04            
1 57654U 23123A   24157.49722601  .00002504  00000+0  32979-3 0  9991
2 57654  97.9118  75.1058 0003728 219.4393 140.6549 14.81019240 42893
PARS 1                  
1 59065U 24039Q   24157.49742121  .00009207  00000+0  36299-3 0  9991
2 59065  97.3928 119.6154 0012481 246.4085 113.5842 15.25726911 14791
RESURS-P 4              
1 59371U 24061A   24157.50518399  .00006081  00000+0  19515-3 0  9995
2 59371  97.1855 110.9090 0002436 110.1034 250.0471 15.32667354 10133
